{
  "norad_id": 55587,
  "name": "STARLINK-5727",
  "history": [
    {
      "epoch": "2026-03-28T18:48:21.168576Z",
      "apogee_km": 486.486467195522,
      "perigee_km": 484.5472104399023,
      "latitude_deg": 2.4270612958091683e-05,
      "longitude_deg": 148.95165754897437,
      "height_km": 485.1715585729763,
      "semi_major_axis_km": 6863.653838817711,
      "eccentricity": 0.00014127,
      "inclination_deg": 42.9987,
      "raan_deg": 257.2389,
      "arg_perigee_deg": 277.2243,
      "mean_anomaly_deg": 82.8448,
      "mean_motion_rev_day": 15.2675624
    },
    {
      "epoch": "2026-03-29T04:13:36.366240Z",
      "apogee_km": 486.4491159125946,
      "perigee_km": 484.61239842077794,
      "latitude_deg": 5.137811952784509e-05,
      "longitude_deg": 5.0378607330101,
      "height_km": 485.1472129449982,
      "semi_major_axis_km": 6863.667757166686,
      "eccentricity": 0.0001338,
      "inclination_deg": 42.9982,
      "raan_deg": 255.0253,
      "arg_perigee_deg": 280.0383,
      "mean_anomaly_deg": 80.0318,
      "mean_motion_rev_day": 15.26751596
    },
    {
      "epoch": "2026-03-30T03:46:43.771584Z",
      "apogee_km": 486.33446084090247,
      "perigee_km": 484.76404942572844,
      "latitude_deg": -4.168207962042036e-05,
      "longitude_deg": 5.2537578708401975,
      "height_km": 485.2084943983903,
      "semi_major_axis_km": 6863.686255133315,
      "eccentricity": 0.0001144,
      "inclination_deg": 42.9982,
      "raan_deg": 249.4894,
      "arg_perigee_deg": 278.5795,
      "mean_anomaly_deg": 81.4926,
      "mean_motion_rev_day": 15.26745424
    },
    {
      "epoch": "2026-03-30T11:37:45.932160Z",
      "apogee_km": 486.3031953751706,
      "perigee_km": 484.7736939390825,
      "latitude_deg": -3.282929487638361e-05,
      "longitude_deg": -114.67304740152544,
      "height_km": 485.2234103111473,
      "semi_major_axis_km": 6863.675444657126,
      "eccentricity": 0.00011142,
      "inclination_deg": 42.9983,
      "raan_deg": 247.644,
      "arg_perigee_deg": 276.8639,
      "mean_anomaly_deg": 83.2085,
      "mean_motion_rev_day": 15.26749031
    },
    {
      "epoch": "2026-03-30T19:28:48.402048Z",
      "apogee_km": 486.30263765970085,
      "perigee_km": 484.7974310930622,
      "latitude_deg": -1.7585425876015738e-06,
      "longitude_deg": 125.39927869302035,
      "height_km": 485.26471035757083,
      "semi_major_axis_km": 6863.687034376381,
      "eccentricity": 0.00010965,
      "inclination_deg": 42.9987,
      "raan_deg": 245.799,
      "arg_perigee_deg": 274.7034,
      "mean_anomaly_deg": 85.3692,
      "mean_motion_rev_day": 15.26745164
    },
    {
      "epoch": "2026-03-31T09:36:52.488864Z",
      "apogee_km": 487.88453919419044,
      "perigee_km": 484.0255466476592,
      "latitude_deg": 1.1932253370231863e-05,
      "longitude_deg": -90.51871632313217,
      "height_km": 485.62136117354675,
      "semi_major_axis_km": 6864.0920429209245,
      "eccentricity": 0.0002811,
      "inclination_deg": 42.999,
      "raan_deg": 242.4785,
      "arg_perigee_deg": 86.8602,
      "mean_anomaly_deg": 273.2571,
      "mean_motion_rev_day": 15.2661004
    },
    {
      "epoch": "2026-04-01T09:09:47.780928Z",
      "apogee_km": 486.3653393675286,
      "perigee_km": 484.76060631387827,
      "latitude_deg": -2.1471430058786463e-05,
      "longitude_deg": -90.25164466116387,
      "height_km": 485.24015976688867,
      "semi_major_axis_km": 6863.699972840703,
      "eccentricity": 0.0001169,
      "inclination_deg": 42.9986,
      "raan_deg": 236.9431,
      "arg_perigee_deg": 277.1059,
      "mean_anomaly_deg": 82.9659,
      "mean_motion_rev_day": 15.26740847
    },
    {
      "epoch": "2026-04-02T16:33:56.911392Z",
      "apogee_km": 486.36052364221086,
      "perigee_km": 484.7008887908478,
      "latitude_deg": 1.5164379739072048e-05,
      "longitude_deg": 150.03839571667743,
      "height_km": 485.28928900403935,
      "semi_major_axis_km": 6863.667706216529,
      "eccentricity": 0.0001209,
      "inclination_deg": 43.0002,
      "raan_deg": 229.5608,
      "arg_perigee_deg": 271.2473,
      "mean_anomaly_deg": 88.824,
      "mean_motion_rev_day": 15.26751613
    }
  ]
}